{"type": "FeatureCollection", "features": [ {"type": "Feature", "properties": {"norad_id": 42738, "name": "QZS-2 (QZSS/PRN 194)", "group": "gnss", "lat": -11.77271188081677, "lon": 80.3500238938509, "alt_km": 34536.554485988156, "timestamp": "2025-12-18T14:52:08.268268+00:00", "meta": {"OBJECT_NAME": "QZS-2 (QZSS/PRN 194)", "OBJECT_ID": "2017-028A", "EPOCH": "2025-12-17T13:57:26.416800", "MEAN_MOTION": 1.00281777, "ECCENTRICITY": 0.07567645, "INCLINATION": 39.7061, "RA_OF_ASC_NODE": 245.8118, "ARG_OF_PERICENTER": 269.528, "MEAN_ANOMALY": 282.4506, "EPHEMERIS_TYPE": 0, "CLASSIFICATION_TYPE": "U", "NORAD_CAT_ID": 42738, "ELEMENT_SET_NO": 999, "REV_AT_EPOCH": 580, "BSTAR": 0, "MEAN_MOTION_DOT": -1.35e-06, "MEAN_MOTION_DDOT": 0}, "tle": {"line1": "1 42738U 17028A   25351.58155575 -.00000135  00000+0  00000+0 0  9997", "line2": "2 42738  39.7061 245.8118 0756764 269.5280 282.4506  1.00281777  5801"}}, "geometry": {"type": "Point", "coordinates": [80.3500238938509, -11.77271188081677]}}, {"type": "Feature", "properties": {"norad_id": 42917, "name": "QZS-3 (QZSS/PRN 199)", "group": "gnss", "lat": -0.00020636494275718336, "lon": 77.53719133776524, "alt_km": 35794.55271319148, "timestamp": "2025-12-18T14:52:08.268281+00:00", "meta": {"OBJECT_NAME": "QZS-3 (QZSS/PRN 199)", "OBJECT_ID": "2017-048A", "EPOCH": "2025-12-18T05:48:38.666016", "MEAN_MOTION": 1.00267122, "ECCENTRICITY": 0.00017867, "INCLINATION": 0.025, "RA_OF_ASC_NODE": 190.5394, "ARG_OF_PERICENTER": 87.2177, "MEAN_ANOMALY": 23.5457, "EPHEMERIS_TYPE": 0, "CLASSIFICATION_TYPE": "U", "NORAD_CAT_ID": 42917, "ELEMENT_SET_NO": 999, "REV_AT_EPOCH": 3044, "BSTAR": 0, "MEAN_MOTION_DOT": 0, "MEAN_MOTION_DDOT": 0}, "tle": {"line1": "1 42917U 17048A   25352.24211419  .00000000  00000+0  00000+0 0  9992", "line2": "2 42917   0.0250 190.5394 0001786  87.2177  23.5457  1.00267122 30445"}}, "geometry": {"type": "Point", "coordinates": [77.53719133776524, -0.00020636494275718336]}}, {"type": "Feature", "properties": {"norad_id": 42939, "name": "COSMOS 2522 (752)", "group": "gnss", "lat": 48.48112917255646, "lon": -15.307264912839361, "alt_km": 19127.29297301744, "timestamp": "2025-12-18T14:52:08.268292+00:00", "meta": {"OBJECT_NAME": "COSMOS 2522 (752)", "OBJECT_ID": "2017-055A", "EPOCH": "2025-12-17T23:44:12.763104", "MEAN_MOTION": 2.13102073, "ECCENTRICITY": 0.00063915, "INCLINATION": 64.076, "RA_OF_ASC_NODE": 198.0502, "ARG_OF_PERICENTER": 224.057, "MEAN_ANOMALY": 135.9735, "EPHEMERIS_TYPE": 0, "CLASSIFICATION_TYPE": "U", "NORAD_CAT_ID": 42939, "ELEMENT_SET_NO": 999, "REV_AT_EPOCH": 6411, "BSTAR": 0, "MEAN_MOTION_DOT": 1.1e-06, "MEAN_MOTION_DDOT": 0}, "tle": {"line1": "1 42939U 17055A   25351.98903661  .00000110  00000+0  00000+0 0  9993", "line2": "2 42939  64.0760 198.0502 0006391 224.0570 135.9735  2.13102073 64110"}}, "geometry": {"type": "Point", "coordinates": [-15.307264912839361, 48.48112917255646]}}, {"type": "Feature", "properties": {"norad_id": 42965, "name": "QZS-4 (QZSS/PRN 195)", "group": "gnss", "lat": 39.55482241796823, "lon": 88.03857216691492, "alt_km": 38940.547131818195, "timestamp": "2025-12-18T14:52:08.268303+00:00", "meta": {"OBJECT_NAME": "QZS-4 (QZSS/PRN 195)", "OBJECT_ID": "2017-062A", "EPOCH": "2025-12-17T20:46:45.234048", "MEAN_MOTION": 1.00251746, "ECCENTRICITY": 0.07515485, "INCLINATION": 40.2233, "RA_OF_ASC_NODE": 345.8056, "ARG_OF_PERICENTER": 271.6564, "MEAN_ANOMALY": 276.9432, "EPHEMERIS_TYPE": 0, "CLASSIFICATION_TYPE": "U", "NORAD_CAT_ID": 42965, "ELEMENT_SET_NO": 999, "REV_AT_EPOCH": 2998, "BSTAR": 0, "MEAN_MOTION_DOT": -3.41e-06, "MEAN_MOTION_DDOT": 0}, "tle": {"line1": "1 42965U 17062A   25351.86580132 -.00000341  00000+0  00000+0 0  9998", "line2": "2 42965  40.2233 345.8056 0751548 271.6564 276.9432  1.00251746 29981"}}, "geometry": {"type": "Point", "coordinates": [88.03857216691492, 39.55482241796823]}}, {"type": "Feature", "properties": {"norad_id": 43001, "name": "BEIDOU-3 M1 (C19)", "group": "gnss", "lat": -49.0407258606017, "lon": 19.512093434200207, "alt_km": 21507.536156001912, "timestamp": "2025-12-18T14:52:08.268317+00:00", "meta": {"OBJECT_NAME": "BEIDOU-3 M1 (C19)", "OBJECT_ID": "2017-069A", "EPOCH": "2025-12-17T15:24:44.433216", "MEAN_MOTION": 1.86231367, "ECCENTRICITY": 0.00094147, "INCLINATION": 56.5313, "RA_OF_ASC_NODE": 69.0717, "ARG_OF_PERICENTER": 302.6799, "MEAN_ANOMALY": 57.2556, "EPHEMERIS_TYPE": 0, "CLASSIFICATION_TYPE": "U", "NORAD_CAT_ID": 43001, "ELEMENT_SET_NO": 999, "REV_AT_EPOCH": 5522, "BSTAR": 0, "MEAN_MOTION_DOT": -7e-07, "MEAN_MOTION_DDOT": 0}, "tle": {"line1": "1 43001U 17069A   25351.64218094 -.00000070  00000+0  00000+0 0  9997", "line2": "2 43001  56.5313  69.0717 0009414 302.6799  57.2556  1.86231367 55228"}}, "geometry": {"type": "Point", "coordinates": [19.512093434200207, -49.0407258606017]}}, {"type": "Feature", "properties": {"norad_id": 43002, "name": "BEIDOU-3 M2 (C20)", "group": "gnss", "lat": -19.390643122125528, "lon": 55.64688625865125, "alt_km": 21512.820840672262, "timestamp": "2025-12-18T14:52:08.268328+00:00", "meta": {"OBJECT_NAME": "BEIDOU-3 M2 (C20)", "OBJECT_ID": "2017-069B", "EPOCH": "2025-12-18T02:49:13.033344", "MEAN_MOTION": 1.86230976, "ECCENTRICITY": 0.00064664, "INCLINATION": 56.5314, "RA_OF_ASC_NODE": 69.092, "ARG_OF_PERICENTER": 330.9004, "MEAN_ANOMALY": 29.0919, "EPHEMERIS_TYPE": 0, "CLASSIFICATION_TYPE": "U", "NORAD_CAT_ID": 43002, "ELEMENT_SET_NO": 999, "REV_AT_EPOCH": 5522, "BSTAR": 0, "MEAN_MOTION_DOT": -6.6e-07, "MEAN_MOTION_DDOT": 0}, "tle": {"line1": "1 43002U 17069B   25352.11751196 -.00000066  00000+0  00000+0 0  9991", "line2": "2 43002  56.5314  69.0920 0006466 330.9004  29.0919  1.86230976 55228"}}, "geometry": {"type": "Point", "coordinates": [55.64688625865125, -19.390643122125528]}}, {"type": "Feature", "properties": {"norad_id": 43055, "name": "GSAT0215 (GALILEO 19)", "group": "gnss", "lat": 11.16762102476556, "lon": 38.58145072745569, "alt_km": 23224.63870231289, "timestamp": "2025-12-18T14:52:08.268339+00:00", "meta": {"OBJECT_NAME": "GSAT0215 (GALILEO 19)", "OBJECT_ID": "2017-079A", "EPOCH": "2025-12-17T04:12:33.509376", "MEAN_MOTION": 1.70474116, "ECCENTRICITY": 0.00012477, "INCLINATION": 55.1286, "RA_OF_ASC_NODE": 226.5156, "ARG_OF_PERICENTER": 341.6592, "MEAN_ANOMALY": 18.4365, "EPHEMERIS_TYPE": 0, "CLASSIFICATION_TYPE": "U", "NORAD_CAT_ID": 43055, "ELEMENT_SET_NO": 999, "REV_AT_EPOCH": 4988, "BSTAR": 0, "MEAN_MOTION_DOT": 5.5e-07, "MEAN_MOTION_DDOT": 0}, "tle": {"line1": "1 43055U 17079A   25351.17538784  .00000055  00000+0  00000+0 0  9998", "line2": "2 43055  55.1286 226.5156 0001247 341.6592  18.4365  1.70474116 49884"}}, "geometry": {"type": "Point", "coordinates": [38.58145072745569, 11.16762102476556]}}, {"type": "Feature", "properties": {"norad_id": 43056, "name": "GSAT0216 (GALILEO 20)", "group": "gnss", "lat": -10.202902971061002, "lon": -140.71633748797046, "alt_km": 23217.256378194925, "timestamp": "2025-12-18T14:52:08.268351+00:00", "meta": {"OBJECT_NAME": "GSAT0216 (GALILEO 20)", "OBJECT_ID": "2017-079B", "EPOCH": "2025-12-16T21:07:19.515072", "MEAN_MOTION": 1.70474167, "ECCENTRICITY": 0.00024195, "INCLINATION": 55.129, "RA_OF_ASC_NODE": 226.5236, "ARG_OF_PERICENTER": 322.2527, "MEAN_ANOMALY": 37.829, "EPHEMERIS_TYPE": 0, "CLASSIFICATION_TYPE": "U", "NORAD_CAT_ID": 43056, "ELEMENT_SET_NO": 999, "REV_AT_EPOCH": 4989, "BSTAR": 0, "MEAN_MOTION_DOT": 5.3e-07, "MEAN_MOTION_DDOT": 0}, "tle": {"line1": "1 43056U 17079B   25350.88008698  .00000053  00000+0  00000+0 0  9990", "line2": "2 43056  55.1290 226.5236 0002419 322.2527  37.8290  1.70474167 49893"}}, "geometry": {"type": "Point", "coordinates": [-140.71633748797046, -10.202902971061002]}}, {"type": "Feature", "properties": {"norad_id": 43057, "name": "GSAT0217 (GALILEO 21)", "group": "gnss", "lat": -25.841867536251026, "lon": 66.21037057553497, "alt_km": 23231.414550216807, "timestamp": "2025-12-18T14:52:08.268362+00:00", "meta": {"OBJECT_NAME": "GSAT0217 (GALILEO 21)", "OBJECT_ID": "2017-079C", "EPOCH": "2025-12-17T16:29:50.691264", "MEAN_MOTION": 1.70474088, "ECCENTRICITY": 0.00027909, "INCLINATION": 55.1268, "RA_OF_ASC_NODE": 226.4994, "ARG_OF_PERICENTER": 347.0606, "MEAN_ANOMALY": 13.035, "EPHEMERIS_TYPE": 0, "CLASSIFICATION_TYPE": "U", "NORAD_CAT_ID": 43057, "ELEMENT_SET_NO": 999, "REV_AT_EPOCH": 4989, "BSTAR": 0, "MEAN_MOTION_DOT": 5.8e-07, "MEAN_MOTION_DDOT": 0}, "tle": {"line1": "1 43057U 17079C   25351.68739226  .00000058  00000+0  00000+0 0  9993", "line2": "2 43057  55.1268 226.4994 0002790 347.0606  13.0350  1.70474088 49899"}}, "geometry": {"type": "Point", "coordinates": [66.21037057553497, -25.841867536251026]}}, {"type": "Feature", "properties": {"norad_id": 43058, "name": "GSAT0218 (GALILEO 22)", "group": "gnss", "lat": 53.091666593471906, "lon": -65.41891427635805, "alt_km": 23221.88292937581, "timestamp": "2025-12-18T14:52:08.268379+00:00", "meta": {"OBJECT_NAME": "GSAT0218 (GALILEO 22)", "OBJECT_ID": "2017-079D", "EPOCH": "2025-12-17T21:46:41.589984", "MEAN_MOTION": 1.70474188, "ECCENTRICITY": 0.00029691, "INCLINATION": 55.1269, "RA_OF_ASC_NODE": 226.4911, "ARG_OF_PERICENTER": 304.5931, "MEAN_ANOMALY": 55.4827, "EPHEMERIS_TYPE": 0, "CLASSIFICATION_TYPE": "U", "NORAD_CAT_ID": 43058, "ELEMENT_SET_NO": 999, "REV_AT_EPOCH": 4992, "BSTAR": 0, "MEAN_MOTION_DOT": 5.9e-07, "MEAN_MOTION_DDOT": 0}, "tle": {"line1": "1 43058U 17079D   25351.90742581  .00000059  00000+0  00000+0 0  9998", "line2": "2 43058  55.1269 226.4911 0002969 304.5931  55.4827  1.70474188 49921"}}, "geometry": {"type": "Point", "coordinates": [-65.41891427635805, 53.091666593471906]}}]}